[Satellite]
VERSION=1.1
NAME=STARLINK-5249
NICKNAME=STARLINK-5249
TLE1=1 54205U 22141BA  22321.58334491  .00048372  00000+0  34795-3 0  9997
TLE2=2 54205  53.2169  42.2184 0002619  16.4846 124.0583 15.73139500  1303
STATUS=0
